IRIDIUM 136             
1 42962U 17061H   24074.86873327  .00000260  00000+0  85706-4 0  9996
2 42962  86.4027   9.7266 0001953  89.1168 271.0251 14.34217559336688
